[{"OBJECT_NAME":"STARLINK-4044","OBJECT_ID":"2022-053G","EPOCH":"2026-03-09T13:03:24.658560","MEAN_MOTION":15.08832233,"ECCENTRICITY":0.00013757,"INCLINATION":53.2179,"RA_OF_ASC_NODE":154.7777,"ARG_OF_PERICENTER":90.5323,"MEAN_ANOMALY":269.5827,"EPHEMERIS_TYPE":0,"CLASSIFICATION_TYPE":"U","NORAD_CAT_ID":52662,"ELEMENT_SET_NO":999,"REV_AT_EPOCH":21102,"BSTAR":2.984641e-6,"MEAN_MOTION_DOT":-2.4e-6,"MEAN_MOTION_DDOT":0},{"OBJECT_NAME":"OBJECT T","OBJECT_ID":"2018-099T","EPOCH":"2026-03-09T14:32:29.418720","MEAN_MOTION":15.09436097,"ECCENTRICITY":0.0004517,"INCLINATION":97.4347,"RA_OF_ASC_NODE":115.9313,"ARG_OF_PERICENTER":320.9739,"MEAN_ANOMALY":39.1164,"EPHEMERIS_TYPE":0,"CLASSIFICATION_TYPE":"U","NORAD_CAT_ID":43775,"ELEMENT_SET_NO":999,"REV_AT_EPOCH":39729,"BSTAR":0.00032877,"MEAN_MOTION_DOT":5.2e-5,"MEAN_MOTION_DDOT":0}]
